IRIDIUM 36              
1 24967U 97056C   24275.10973167  .00001357  00000+0  45100-3 0  9997
2 24967  86.3903 281.8050 0002450  94.3833 265.7645 14.37063476415000
IRIDIUM 39              
1 25042U 97069D   24275.21074302  .00002087  00000+0  55094-3 0  9995
2 25042  86.3922 322.1809 0020470  91.7898 268.5651 14.48392823411727
IRIDIUM 38              
1 25043U 97069E   24274.80472267  .00001435  00000+0  47244-3 0  9996
2 25043  86.4004 342.2996 0001557 150.8348 209.2937 14.37560232408681
IRIDIUM 42              
1 25077U 97077A   24275.19254440  .00001525  00000+0  52020-3 0  9994
2 25077  86.4016 347.9827 0001644 105.5004 254.6374 14.35838857404021
IRIDIUM 44              
1 25078U 97077B   24274.52256604  .00001264  00000+0  39801-3 0  9997
2 25078  86.3980 330.8902 0003394 123.7520 236.4002 14.39678223406363
IRIDIUM 45              
1 25104U 97082A   24275.22267187  .00028461  00000+0  14153-2 0  9999
2 25104  86.3707 172.2948 0144404 211.7015 147.5469 15.08724459413067
IRIDIUM 24              
1 25105U 97082B   24274.82675130  .00001792  00000+0  54582-3 0  9995
2 25105  86.3984 190.1763 0010024 204.8692 155.2026 14.41504437405843
IRIDIUM 51              
1 25262U 98018A   24275.24364068  .00040503  00000+0  15922-2 0  9998
2 25262  86.3995 181.7604 0131231 148.4200 212.5005 15.17785720407689
